     3.04           OBSERVATION DATA    M                   RINEX VERSION / TYPE
GNSS_ToolBox        RTGS                20260322 060524 UTC PGM / RUN BY / DATE
BUAA                                                        MARKER NAME
0                                                           MARKER NUMBER
Automatic           RTGS                                    OBSERVER / AGENCY
00                  Generic                                 REC # / TYPE / VERS
                    UNKNOWN                                 ANT # / TYPE
 -2171604.0112  4385718.2139  4076741.0155                  APPROX POSITION XYZ
        0.0000        0.0000        0.0000                  ANTENNA: DELTA H/E/N
C   16 C1P L1P D1P S1P C2I L2I D2I S2I C6I L6I D6I S6I C7D  SYS / # / OBS TYPES
       L7D D7D S7D                                          SYS / # / OBS TYPES
E   16 C1C L1C D1C S1C C5Q L5Q D5Q S5Q C6C L6C D6C S6C C7Q  SYS / # / OBS TYPES
       L7Q D7Q S7Q                                          SYS / # / OBS TYPES
G   12 C1C L1C D1C S1C C2W L2W D2W S2W C5Q L5Q D5Q S5Q      SYS / # / OBS TYPES
R    8 C1C L1C D1C S1C C2C L2C D2C S2C                      SYS / # / OBS TYPES
DBHZ                                                        SIGNAL STRENGTH UNIT
    15.000                                                  INTERVAL
  2026    03    22    06    03   15.0000000     GPS         TIME OF FIRST OBS
  2026    03    22    06    05   15.0000000     GPS         TIME OF LAST OBS
                                                            END OF HEADER
> 2026 03 22 06 03 15.0000000  0 48                     
C01                                                                  38314138.562   199511783.82607       -20.829          41.750    38314141.424   162119651.52406       -16.925          39.500                                                                  
C02                                                                  38348598.189   199691167.63906       -36.451          39.438    38348593.606   162265462.35006       -29.619          38.875                                                                  
C03                                                                  37346121.577   194471012.79907       -36.451          43.062    37346123.461   158023679.24607       -29.619          42.000                                                                  
C04                                                                  39254232.907   204407033.30506       -98.938          40.250    39254231.264   166097491.92906       -80.395          39.500                                                                  
C05                                                                  40341844.819   210070549.14706        10.415          37.188    40341847.104   170699543.10006         8.463          35.438                                                                  
C06                                                                  40014919.615   208368085.44606      1911.065          35.375    40014929.936   169316023.07706      1552.897          39.562                                                                  
C07                                                                  35741537.166   186115509.57808      -197.876          47.125    35741526.340   151234124.94707      -160.790          45.625                                                                  
C09                                                                  38762799.270   201847883.10606      1885.029          37.250    38762800.523   164017967.37906      1531.741          39.875                                                                  
C10                                                                  36440039.759   189752828.31207      -395.752          45.688    36440031.513   154189714.12107      -321.581          44.188                                                                  
C12                                                                  21802973.209   113533862.40908       -36.451          47.125    21802967.985    92255578.28508       -29.619          48.438                                                                  
C16                                                                  40609649.355   211464632.71606      1817.335          38.312    40609670.826   171832254.43505      1476.733          34.875                                                                  
C19                                                                  25998487.615   135374942.67802      1114.354          14.000    25998440.363   110003229.96104       905.504          23.125                                                                  
C22  24075619.324   126518476.27306     -1550.235          39.812    24075627.824   125368308.86007     -1536.142          45.312    24075621.495   101872066.04907     -1248.241          44.875                                                                  
C24  23866220.997   125417837.98907      2716.853          42.312    23866232.169   124277674.09607      2692.154          46.750    23866228.242   100985781.45008      2187.596          47.125                                                                  
C25  23418736.924   123066317.81407      -147.141          43.562    23418739.731   121947534.96807      -145.803          46.938    23418736.857    99092365.43207      -118.477          46.250                                                                  
C34  22254221.429   116946814.82407     -1308.504          45.938    22254222.828   115883663.32708     -1296.608          47.188    22254224.060    94164987.94807     -1053.600          46.625                                                                  
C35  25663679.530   134863549.86206      2459.356          36.938    25663682.880   133637523.13206      2436.999          39.938    25663685.692   108591423.42906      1980.261          39.625                                                                  
C38  38149235.359   200475962.49306     -1765.692          40.188    38149239.785   198653456.60307     -1749.640          43.188    38149239.204   161422277.13907     -1421.726          44.062                                                                  
C40  36076708.933   189584390.12607      -120.866          46.500    36076710.019   187860864.39508      -119.767          47.875    36076705.642   152652338.81608       -97.321          47.938                                                                  
C44  22007933.303   115652532.95207      1177.128          45.000    22007935.207   114601147.41907      1166.427          46.875    22007934.404    93122830.44508       947.817          49.312                                                                  
C59                                                                  38126527.640   198534780.36707       -57.280          44.000    38126517.315   161325821.32907       -46.545          44.562    38126516.865   153519721.07107       -44.293          46.625  
C60                                                                  38709466.111   201570316.25207       -46.866          43.438    38709451.897   163792391.02107       -38.082          42.875    38709453.418   155866955.44807       -36.239          45.188  
C61                                                                                                                                                                                                  37633595.809   151534824.01908       -36.239          47.188  
C62                                                                  38284670.365   199358284.70108        -0.000          47.375    38284667.492   161994952.14207        -0.000          43.562    38284652.749   154156475.20209        -0.000          53.250  
E02  24252118.633   127445773.75207      1970.638          44.562    24252125.116    95170514.06508      1471.580          49.250    24252125.149   103446240.79808      1599.544          47.938    24252120.557    97653244.99308      1509.969          49.688  
E15  26485965.089   139184770.35006     -2354.256          39.625    26485982.150   103936785.65507     -1758.048          42.812    26485976.077   112974757.68807     -1910.922          43.250    26485976.178   106648092.25207     -1803.910          43.625  
E18  20913696.630   109902322.53307     -4698.002          46.250    20913700.643    82069926.52708     -3508.248          48.875                                                                    20913696.660    84210865.26808     -3599.767          50.562  
E30  23997715.918   126108907.15307      -798.766          46.062    23997721.767    94172247.45408      -596.481          48.875    23997719.510   102361134.23608      -648.349          49.500    23997717.475    96628913.93608      -612.041          49.812  
E34  23450200.121   123231668.91007      -430.913          46.500    23450206.596    92023671.24108      -321.785          48.812    23450206.170   100025725.70508      -349.767          49.812    23450202.676    94424286.18508      -330.180          50.562  
E36  24867103.727   130677456.24607      1954.873          44.625    24867110.928    97583833.70808      1459.808          48.500    24867109.855   106069391.45108      1586.748          48.500    24867106.647   100129499.28708      1497.890          49.938  
G01  23534524.035   123674793.31206      3142.511          35.688    23534524.345    96369972.76206      2448.710          37.188    23534528.554    92354565.05906      2346.681          38.250  
G03  21326044.334   112069346.34107      1061.517          44.812    21326046.733    87326822.32907       827.156          44.438    21326045.637    83688216.87708       792.691          49.500  
G06  21476592.014   112860352.69607     -1765.692          46.562    21476591.709    87943224.98107     -1375.864          46.562    21476595.231    84278935.43308     -1318.536          51.188  
G11  24841900.734   130545106.78506     -3084.706          37.812    24841910.873   101723471.87906     -2403.667          39.188    24841916.141    97484996.72806     -2303.514          39.375  
G14  21005288.205   110383559.42507      2501.397          44.688    21005291.266    86013164.36007      1949.141          45.312    21005297.345    82429282.76808      1867.926          49.062  
G17  20768233.897   109137858.64108        57.806          47.312    20768229.715    85042500.71507        45.043          46.250                                                                  
G19  20732456.731   108949839.84207     -1718.397          45.125    20732455.332    84895998.60607     -1339.010          42.750                                                                  
G22  20875773.317   109702955.43408      1250.698          47.125    20875771.368    85482831.17407       974.570          43.312                                                                  
G24  24807324.817   130363367.10506      1114.067          36.750    24807332.876   101581834.08106       868.105          35.562    24807336.608    97349254.38506       831.933          40.500  
R03  23105739.752   123463511.71903      1042.021          19.375    23105739.129    96027175.78103       810.460          20.125  
R04  22208974.218   118928189.15408     -2136.627          47.000    22208978.236    92499733.65207     -1661.821          44.250  
R05  23687715.323   126624480.82407     -3934.342          44.500    23687727.480    98485734.89107     -3060.043          41.562  
R09  20985299.483   112060307.50508      3625.822          48.375    20985305.403    87158031.01608      2820.084          49.688  
R10  20156066.263   107443177.33807       218.553          46.188                                                                  
R11  22630817.421   120932158.52205     -3393.247          30.688    22630818.964    94058366.25705     -2639.192          30.938  
R19  20838420.750   111354266.54408      2249.696          49.000    20838422.616    86608890.06708      1749.764          49.375  
R20  19875924.751   106211025.68308      -566.432          51.312    19875924.403    82608607.87208      -440.558          49.562  
R21  22815256.139   121917896.28307     -2629.099          43.938    22815264.489    94825052.53507     -2044.855          42.375  
> 2026 03 22 06 03 30.0000000  0 48                     
C01                                                                  38314076.753   199511462.77107       -20.829          41.312    38314079.854   162119390.67506       -16.925          40.125                                                                  
C02                                                                  38348499.351   199690652.28306       -36.451          39.250    38348494.492   162265043.62706       -29.619          39.625                                                                  
C03                                                                  37346015.077   194470458.71407       -36.451          42.750    37346017.102   158023229.05707       -29.619          42.750                                                                  
C04                                                                  39253957.686   204405599.56206       -98.938          39.812    39253955.760   166096326.96706       -80.395          40.250                                                                  
C05                                                                  40341883.320   210070750.37706        10.415          37.000    40341885.784   170699706.64306         8.463          36.125                                                                  
C06                                                                  40020426.018   208396759.52205      1911.065          34.750    40020437.008   169339322.81206      1552.897          40.188                                                                  
C07                                                                  35740971.148   186112568.43707      -197.876          46.500    35740961.535   151231735.07407      -160.790          46.250                                                                  
C09                                                                  38768239.548   201876209.84206      1885.029          36.125    38768240.436   164040985.10206      1531.741          40.688                                                                  
C10                                                                  36438903.829   189746917.38307      -395.752          45.250    36438896.365   154184911.04007      -321.581          44.938                                                                  
C12                                                                  21802871.479   113533344.71807       -36.451          46.688    21802868.557    92255157.65108       -29.619          49.188                                                                  
C16                                                                  40614884.426   211491890.65006      1817.334          38.312    40614905.785   171854403.00906      1476.733          35.188                                                                  
C19  26001712.890   136633838.08603      1140.343          17.938    26001720.782   135391712.28503      1129.976          21.812    26001692.178   110016856.64104       918.198          23.312                                                                  
C22  24071210.030   126495308.60106     -1539.726          39.438    24071219.549   125345351.82607     -1525.728          45.312    24071212.457   101853411.65107     -1239.779          45.312                                                                  
C24  23873976.799   125458600.63407      2716.853          42.000    23873989.094   124318066.19007      2692.155          46.562    23873985.036   101018603.30908      2187.596          47.625                                                                  
C25  23418329.923   123064182.73507      -141.886          43.562    23418334.485   121945419.30507      -140.596          46.812    23418330.596    99090646.30607      -114.246          46.938                                                                  
C34  22250500.124   116927240.70907     -1303.249          45.688    22250500.729   115864267.16208     -1291.401          48.062    22250499.239    94149227.02808     -1049.369          47.250                                                                  
C35  25670698.495   134900440.71606      2459.357          36.875    25670704.830   133674078.54006      2436.999          40.688    25670705.811   108621127.67806      1980.261          40.188                                                                  
C38  38144203.682   200449510.29906     -1765.692          40.562    38144205.175   198627244.89407     -1749.640          42.688    38144205.565   161400978.06007     -1421.726          44.812                                                                  
C40  36076364.674   189582587.73007      -120.866          46.312    36076365.516   187859078.38408      -119.767          47.062    36076362.690   152650887.58108       -97.321          48.625                                                                  
C44  22011290.002   115670186.84507      1177.128          43.625    22011297.576   114618640.81808      1166.427          48.250    22011293.947    93137045.30108       947.817          50.062                                                                  
C59                                                                  38126360.950   198533912.86107       -57.280          43.688    38126350.853   161325116.43607       -46.545          45.188    38126350.228   153519050.26807       -44.293          46.750  
C60                                                                  38709328.433   201569599.24907       -46.866          43.125    38709314.179   163791808.40107       -38.082          43.625    38709315.825   155866401.03107       -36.239          45.125  
C61                                                                                                                                                                                                  37633458.566   151534271.39908       -36.239          47.125  
C62                                                                  38284670.747   199358286.59008        -0.000          47.125    38284667.958   161994953.71607        -0.000          44.188    38284653.028   154156476.69109        -0.000          53.188  
E02  24257749.903   127475366.65207      1975.893          44.500    24257756.316    95192612.65208      1475.505          48.875    24257756.605   103470261.01808      1603.809          48.812    24257751.960    97675920.06808      1513.996          49.500  
E15  26479257.057   139149518.80606     -2349.001          39.500    26479274.030   103910461.57607     -1754.124          42.562    26479268.184   112946144.51507     -1906.657          44.375    26479268.071   106621081.45407     -1799.884          43.688  
E18  20900296.147   109831906.44007     -4692.747          46.625    20900300.921    82017343.12408     -3504.324          48.625                                                                    20900296.922    84156910.11808     -3595.741          50.375  
E30  23995444.968   126096968.99507      -793.510          46.125    23995450.007    94163332.61608      -592.556          48.562    23995447.923   102351444.20508      -644.083          50.312    23995445.686    96619766.53708      -608.014          49.625  
E34  23448985.073   123225284.24207      -425.658          46.750    23448991.520    92018903.50508      -317.861          48.500    23448990.887   100020543.38508      -345.501          50.688    23448987.734    94419394.06408      -326.153          50.375  
E36  24872682.997   130706777.94507      1954.873          45.000    24872690.633    97605729.76908      1459.808          48.188    24872689.977   106093191.54308      1586.748          49.375    24872686.352   100151966.55608      1497.890          49.688  
G01  23543497.177   123721979.15205      3147.766          31.625    23543505.089    96406740.88506      2452.805          36.875    23543507.290    92389801.17406      2350.604          37.812  
G03  21329090.469   112085356.42607      1072.027          44.812    21329093.214    87339297.73807       835.346          44.250    21329092.165    83700172.47308       800.540          48.875  
G06  21471563.806   112833937.84907     -1760.437          45.688    21471565.040    87922642.05807     -1371.769          46.438    21471568.543    84259210.13608     -1314.612          50.750  
G11  24833096.173   130498833.48506     -3084.706          37.875    24833105.970   101687414.87606     -2403.667          39.062    24833110.504    97450442.18606     -2303.514          39.000  
G14  21012445.369   110421171.21807      2511.907          44.500    21012446.665    86042472.21107      1957.330          44.688    21012454.667    82457369.46008      1875.775          48.625  
G17  20768410.691   109138804.79507        63.061          45.688    20768410.705    85043237.98207        49.138          46.312                                                                  
G19  20727555.344   108924084.30807     -1718.396          45.812    20727554.189    84875929.36607     -1339.010          42.688                                                                  
G22  20879354.774   109721771.34008      1255.954          47.375    20879351.950    85497492.91507       978.665          43.062                                                                  
G24  24810518.173   130380145.10006      1119.323          37.250    24810528.352   101594907.78906       872.200          36.625    24810529.112    97361783.35006       835.858          40.062  
R03  23108679.557   123479156.25003      1052.708          20.250    23108689.450    96039343.75003       818.773          19.688  
R04  22203005.485   118896208.68408     -2125.917          47.250    22203007.315    92474860.01207     -1653.491          44.688  
R05  23676686.591   126565526.94207     -3928.996          43.062    23676697.472    98439882.49106     -3055.886          40.562  
R09  20995497.570   112114765.70008      3631.162          48.312    20995502.720    87200387.34108      2824.237          49.125  
R10  20156696.920   107446553.20307       229.214          45.000                                                                  
R11  22621300.207   120881353.74805     -3382.560          29.562    22621319.867    94018851.46905     -2630.880          31.500  
R19  20844746.225   111505398.63108      2257.415          48.875    20844750.825    86726437.22608      1755.767          49.000  
R20  19874341.105   106277158.80608      -561.482          50.812    19874341.698    82660044.81208      -436.708          49.062  
R21  22807893.586   122049700.02807     -2627.440          45.312    22807898.449    94927566.70407     -2043.565          41.875  
> 2026 03 22 06 03 45.0000000  0 48                     
C01                                                                  38314008.943   199511109.18407       -20.829          41.625    38314011.812   162119103.34506       -16.925          39.125                                                                  
C02                                                                  38348394.022   199690102.70506       -36.451          39.562    38348388.839   162264597.07206       -29.619          38.750                                                                  
C03                                                                  37345902.346   194469871.85907       -36.451          43.125    37345904.335   158022752.17807       -29.619          41.625                                                                  
C04                                                                  39253676.396   204404133.37206       -98.938          40.250    39253674.236   166095135.57606       -80.395          39.250                                                                  
C05                                                                  40341915.605   210070917.91506        10.415          37.438    40341917.952   170699842.78606         8.463          35.312                                                                  
C06                                                                  40025925.152   208425394.66706      1911.065          35.062    40025936.158   169362590.92306      1552.897          39.062                                                                  
C07                                                                  35740399.076   186109597.22707      -197.876          46.438    35740390.944   151229320.70907      -160.790          45.250                                                                  
C09                                                                  38773676.040   201904511.72906      1890.236          36.938    38773675.842   164063982.58006      1535.972          39.812                                                                  
C10                                                                  36437761.055   189740972.77307      -395.752          45.312    36437754.786   154180080.53407      -321.581          43.875                                                                  
C12                                                                  21802777.539   113532842.14608       -31.244          47.438    21802771.913    92254749.27008       -25.388          48.125                                                                  
C16                                                                  40620110.559   211519104.57306      1817.334          38.188    40620133.354   171876515.79805      1476.733          34.250                                                                  
C19  26004980.870   136650761.54303      1145.598          21.875    26004990.275   135408481.89304      1135.183          24.562    26004956.396   110030483.32003       922.429          22.250                                                                  
C22  24066814.623   126472213.13106     -1534.470          39.062    24066825.086   125322466.32607     -1520.521          45.875    24066817.319   101834815.34507     -1235.548          44.250                                                                  
C24  23881738.957   125499392.06307      2722.108          41.625    23881751.342   124358486.79307      2697.362          46.812    23881747.272   101051448.28207      2191.828          46.500                                                                  
C25  23417939.487   123062140.45707      -131.376          43.312    23417945.883   121943395.59607      -130.182          46.812    23417941.938    99089001.84707      -105.783          45.938                                                                  
C34  22246772.275   116907676.31007     -1303.249          45.562    22246779.400   115844880.58208     -1291.401          48.250    22246776.264    94133473.87107     -1049.369          46.375                                                                  
C35  25677715.244   134937304.41506      2459.357          37.688    25677721.371   133710607.10407      2436.999          41.562    25677720.456   108650810.09306      1980.261          39.250                                                                  
C38  38139170.472   200423048.34207     -1760.437          41.000    38139170.490   198601023.49007     -1744.433          43.250    38139170.078   161379671.06907     -1417.495          43.938                                                                  
C40  36076013.051   189580750.50707      -120.866          45.750    36076013.921   187857257.85507      -119.767          46.688    36076013.074   152649408.22808       -97.321          47.688                                                                  
C44  22014652.098   115687849.06007      1182.383          44.500    22014657.578   114636142.42908      1171.634          47.125    22014655.032    93151266.78308       952.048          49.250                                                                  
C59                                                                  38126187.985   198533011.83907       -57.280          44.000    38126177.724   161324384.28207       -46.545          44.188    38126177.200   153518353.54807       -44.293          46.500  
C60                                                                  38709184.236   201568848.84107       -46.866          43.500    38709170.153   163791198.62907       -38.082          42.562    38709171.729   155865820.76507       -36.239          45.125  
C61                                                                                                                                                                                                  37633314.963   151533693.17507       -36.239          46.938  
C62                                                                  38284664.778   199358256.43808        -0.000          47.438    38284662.020   161994929.20307        -0.000          43.312    38284647.361   154156453.36509        -0.000          53.062  
E02  24263388.672   127505002.33007      1981.148          44.000    24263395.792    95214743.15608      1479.429          48.312    24263395.953   103494315.93008      1608.075          47.875    24263391.462    97698627.89908      1518.023          48.938  
E15  26472551.323   139114278.49606     -2349.001          39.062    26472568.056   103884145.85607     -1754.124          42.375    26472561.471   112917540.42807     -1906.656          43.812    26472562.156   106594079.22907     -1799.884          43.312  
E18  20886897.431   109761480.24807     -4692.747          46.125    20886899.305    81964752.14408     -3504.324          48.250                                                                    20886895.215    84102947.19408     -3595.741          49.938  
E30  23993184.958   126085087.28807      -788.255          45.875    23993189.004    94154459.90808      -588.632          48.188    23993186.917   102341799.94808      -639.818          49.438    23993184.720    96610662.36508      -603.988          49.125  
E34  23447780.659   123218939.22507      -420.403          46.750    23447784.156    92014165.34808      -313.937          48.250    23447782.924   100015393.20708      -341.236          49.750    23447780.345    94414532.30508      -322.127          49.938  
E36  24878265.797   130736101.56007      1954.873          45.500    24878270.733    97627627.24708      1459.808          47.875    24878268.868   106116993.14708      1586.748          48.312    24878266.474   100174435.26708      1497.890          49.250  
G01  23552473.755   123769145.71105      3147.766          32.625    23552481.209    96443493.97706      2452.805          36.562    23552482.969    92425022.83606      2350.604          37.812  
G03  21332160.372   112101490.85707      1082.537          44.812    21332162.500    87351869.98607       843.536          43.312    21332162.475    83712220.89508       808.388          49.000  
G06  21466544.994   112807578.68307     -1755.182          44.438    21466549.851    87902102.48607     -1367.674          46.188    21466552.530    84239526.36808     -1310.688          50.938  
G11  24824290.707   130452560.96406     -3084.706          38.438    24824299.451   101651358.57406     -2403.667          38.375    24824304.154    97415888.23306     -2303.514          39.000  
G14  21019617.671   110458860.94907      2517.162          44.312    21019618.220    86071840.78007      1961.425          43.875    21019626.967    82485514.32508      1879.699          48.875  
G17  20768599.095   109139779.09008        68.315          47.688    20768598.448    85043997.16807        53.233          46.250                                                                  
G19  20722659.244   108898350.46007     -1713.142          45.500    20722657.262    84855877.05807     -1334.915          42.250                                                                  
G22  20882952.664   109740677.06108      1266.463          47.500    20882949.582    85512224.61907       986.855          43.000                                                                  
G24  24813725.362   130397006.57906      1129.833          36.062    24813735.742   101608046.54806       880.389          35.500    24813738.796    97374374.64706       843.706          40.375  
R03  23111667.988   123711610.47404      1065.263          28.688    23111637.472    96220141.47903       828.538          18.625  
R04  22197055.235   118864345.21507     -2120.562          46.875    22197059.971    92450077.37507     -1649.326          44.938  
R05  23665651.510   126506549.98707     -3928.996          42.812    23665663.245    98394012.06606     -3055.886          39.812  
R09  21005710.558   112169301.43608      3641.842          48.000    21005713.879    87242803.92408      2832.544          48.000  
R10  20157360.625   107450101.43807       245.206          44.875                                                                  
R11  22611815.685   120830682.41805     -3377.216          30.688    22611824.533    93979403.18604     -2626.724          28.938  
R19  20851073.232   111539238.89308      2257.416          48.500    20851073.544    86752757.42908      1755.768          48.000  
R20  19872769.739   106268754.94208      -556.135          50.375    19872773.009    82653508.47508      -432.549          49.375  
R21  22800530.593   122010284.87607     -2627.440          45.938    22800536.629    94896910.60407     -2043.564          43.312  
> 2026 03 22 06 04  0.0000000  0 48                     
C01                                                                  38313946.597   199510785.30007       -20.829          41.500    38313949.549   162118840.20306       -16.925          39.688                                                                  
C02                                                                  38348293.687   199689581.04606       -36.451          39.375    38348288.730   162264173.16606       -29.619          39.250                                                                  
C03                                                                  37345795.334   194469314.47907       -36.451          43.000    37345797.270   158022299.28807       -29.619          42.188                                                                  
C04                                                                  39253400.102   204402696.90906       -98.938          40.000    39253398.350   166093968.37506       -80.395          39.750                                                                  
C05                                                                  40341953.273   210071114.05206        10.415          37.062    40341955.798   170700002.17106         8.463          35.875                                                                  
C06                                                                  40031428.970   208454053.13105      1911.065          34.812    40031440.074   169385878.04806      1552.897          39.438                                                                  
C07                                                                  35739833.494   186106658.17507      -197.876          46.000    35739826.596   151226932.51707      -160.790          45.938                                                                  
C09                                                                  38779118.608   201932851.03806      1890.236          36.562    38779118.226   164087010.53206      1535.972          40.500                                                                  
C10                                                                  36436623.596   189735056.73107      -395.752          44.750    36436618.622   154175273.29907      -321.581          44.438                                                                  
C12                                                                  21802692.158   113532416.81807       -26.036          46.062    21802690.283    92254403.69408       -21.157          48.750                                                                  
C16                                                                  40625341.586   211546336.63306      1812.128          38.188    40625363.837   171898643.41006      1472.502          35.000                                                                  
C19  26008274.139   136667685.00003      1161.363          21.188    26008290.223   135425251.50004      1150.805          23.438    26008252.565   110044110.00003       935.123          21.062                                                                  
C22  24062445.733   126449252.95506     -1529.215          38.938    24062456.048   125299714.86507     -1515.313          45.812    24062447.943   101816328.01207     -1231.316          44.938                                                                  
C24  23889518.916   125540274.74407      2727.363          41.438    23889530.251   124398997.80607      2702.569          46.125    23889526.766   101084366.76507      2196.059          46.812                                                                  
C25  23417578.419   123060253.74107      -120.866          43.250    23417585.607   121941526.02507      -119.767          46.188    23417582.874    99087482.69107       -97.321          46.562                                                                  
C34  22243064.660   116888184.41207     -1297.994          45.250    22243065.363   115825565.91608     -1286.194          47.125    22243067.098    94117779.15907     -1045.138          46.938                                                                  
C35  25684739.347   134974203.82006      2459.357          38.562    25684743.270   133747171.01907      2436.999          41.312    25684742.040   108680521.28006      1980.261          39.562                                                                  
C38  38134146.015   200396639.46407     -1760.437          41.125    38134147.178   198574854.68107     -1744.433          43.812    38134144.686   161358406.84107     -1417.495          44.500                                                                  
C40  36075667.177   189578941.25207      -120.866          45.438    36075668.749   187855465.06807      -119.767          46.438    36075668.858   152647951.46408       -97.321          48.250                                                                  
C44  22018028.507   115705582.25307      1182.383          44.000    22018030.780   114653714.45708      1171.634          47.438    22018029.691    93165545.49508       952.049          49.875                                                                  
C59                                                                  38126020.722   198532139.56807       -57.280          43.875    38126010.191   161323675.51007       -46.545          44.750    38126009.674   153517679.09407       -44.293          46.438  
C60                                                                  38709045.649   201568127.29007       -46.866          43.312    38709031.571   163790612.34807       -38.082          43.125    38709033.106   155865262.84507       -36.239          45.000  
C61                                                                                                                                                                                                  37633176.965   151533137.52307       -36.239          46.875  
C62                                                                  38284664.904   199358256.45208        -0.000          47.188    38284662.067   161994929.23407        -0.000          43.750    38284647.321   154156453.39908        -0.000          52.875  
E02  24269048.037   127534743.48807      1986.403          43.938    24269055.229    95236952.45808      1483.353          47.938    24269055.233   103518456.48908      1612.340          47.750    24269051.083    97721416.58208      1522.049          49.062  
E15  26465860.445   139079112.24406     -2343.746          39.000    26465876.086   103857885.47607     -1750.200          42.125    26465871.292   112888996.49207     -1902.391          43.938    26465870.257   106567133.76807     -1795.857          43.750  
E18  20873502.430   109691107.21007     -4692.747          46.000    20873507.828    81912200.90408     -3504.324          48.062                                                                    20873503.673    84049025.04008     -3595.741          50.125  
E30  23990947.297   126073324.93507      -783.000          45.688    23990950.697    94145676.35608      -584.708          47.875    23990948.506   102332252.61808      -635.552          49.312    23990946.350    96601649.68908      -599.961          49.438  
E34  23446594.553   123212696.58207      -415.148          46.812    23446596.229    92009503.67308      -310.013          47.875    23446594.404   100010326.17508      -336.971          49.625    23446592.469    94409749.02508      -318.100          50.125  
E36  24883858.856   130765489.71907      1960.128          45.062    24883863.211    97649572.98008      1463.732          47.562    24883860.207   106140847.21108      1591.013          48.125    24883858.932   100196953.50308      1501.916          49.562  
G01  23561463.790   123816355.51006      3147.766          35.500    23561463.997    96480280.80306      2452.805          36.125    23561466.917    92460276.93906      2350.605          37.750  
G03  21335265.724   112117812.20707      1093.047          44.188    21335268.661    87364587.93507       851.725          43.062    21335268.344    83724408.95508       816.237          49.000  
G06  21461551.479   112781338.01507     -1749.927          44.625    21461559.283    87881655.24107     -1363.579          46.812    21461559.052    84219931.10508     -1306.763          50.938  
G11  24815495.581   130406352.20606     -3079.451          37.812    24815510.045   101615351.97706     -2399.572          39.125    24815511.519    97381381.93606     -2299.590          39.062  
G14  21026816.792   110496691.15107      2522.417          44.250    21026817.525    86101318.82207      1965.520          43.938    21026825.922    82513764.12008      1883.623          48.812  
G17  20768799.077   109140844.44207        73.570          45.188    20768799.894    85044827.32807        57.328          46.000                                                                  
G19  20717775.990   108872701.38507     -1707.887          44.750    20717776.153    84835890.75307     -1330.821          42.438                                                                  
G22  20886579.015   109759735.20308      1271.719          47.125    20886576.219    85527075.11207       990.950          42.875                                                                  
G24  24816960.157   130414014.17005      1135.088          34.688    24816973.223   101621299.21506       884.484          35.000    24816973.546    97387075.05806       847.631          39.875  
R03  23114662.551   123728849.67003      1075.969          22.938    23114651.638    96233549.74403       836.865          18.250  
R04  22191137.073   118832662.93507     -2109.852          46.188    22191143.124    92425435.68907     -1640.996          44.812  
R05  23654624.073   126447614.17107     -3928.996          42.938    23654640.170    98348173.68306     -3055.886          40.312  
R09  21015950.360   112223977.77308      3647.182          48.438    21015953.012    87285329.88308      2836.697          47.562  
R10  20158071.435   107453885.98607       255.867          45.250                                                                  
R11  22602354.113   120780115.58405     -3366.529          31.562    22602350.103    93940092.24805     -2618.412          29.750  
R19  20857411.874   111573147.72308      2262.765          49.125    20857413.760    86779130.96808      1759.928          48.562  
R20  19871219.352   106260464.35808      -550.787          50.500    19871222.642    82647060.26708      -428.390          48.812  
R21  22793175.824   121970947.40007     -2622.089          44.875    22793187.354    94866314.96307     -2039.403          44.312  
> 2026 03 22 06 04 15.0000000  0 48                     
C01                                                                  38313879.537   199510436.85807       -20.829          41.438    38313882.676   162118557.07506       -16.925          39.750                                                                  
C02                                                                  38348188.533   199689033.09706       -36.451          39.438    38348183.504   162263727.94306       -29.619          39.312                                                                  
C03                                                                  37345683.547   194468732.27807       -36.451          42.938    37345685.519   158021826.20207       -29.619          42.312                                                                  
C04                                                                  39253119.382   204401235.92306       -98.938          40.000    39253117.764   166092781.20906       -80.395          39.812                                                                  
C05                                                                  40341985.957   210071284.42906        10.415          37.062    40341988.411   170700140.66106         8.463          35.875                                                                  
C06                                                                  40036926.781   208482680.61005      1911.065          34.688    40036937.707   169409139.91606      1552.897          39.438                                                                  
C07                                                                  35739264.239   186103697.16007      -197.876          46.000    35739257.978   151224526.44107      -160.790          45.875                                                                  
C09                                                                  38784557.166   201961173.40306      1890.236          36.625    38784557.333   164110024.66806      1535.972          40.562                                                                  
C10                                                                  36435481.541   189729114.87207      -395.752          44.562    36435477.677   154170445.06007      -321.581          44.500                                                                  
C12                                                                  21802617.341   113532014.52708       -26.036          47.125    21802612.916    92254076.79808       -21.157          48.750                                                                  
C16                                                                  40630564.646   211573532.55806      1812.127          38.250    40630586.410   171920741.61405      1472.502          34.625                                                                  
C19  26011600.894   136686146.95303      1166.618          18.500    26011618.936   135443545.61702      1156.012          13.875    26011563.065   110058975.46903       939.354          20.750                                                                  
C22  24058093.209   126426373.51906     -1518.706          39.375    24058101.966   125277043.44107     -1504.899          45.812    24058094.098   101797905.65307     -1222.854          45.250                                                                  
C24  23897306.234   125581193.60107      2732.618          41.688    23897315.777   124439544.70307      2707.776          45.750    23897313.053   101117314.36007      2200.290          46.625                                                                  
C25  23417237.345   123058467.86807      -115.611          43.188    23417243.182   121939756.40507      -114.560          45.812    23417242.957    99086044.70907       -93.089          46.688                                                                  
C34  22239360.821   116868710.31207     -1297.994          44.688    22239362.751   115806268.85108     -1286.194          48.312    22239361.355    94102098.72708     -1045.138          47.125                                                                  
C35  25691758.616   135011084.14406      2459.357          38.938    25691760.664   133783716.08906      2436.999          40.938    25691759.943   108710217.07806      1980.261          39.625                                                                  
C38  38129120.010   200370228.97407     -1760.437          41.250    38129123.020   198548684.27907     -1744.433          44.438    38129118.966   161337141.27707     -1417.495          44.625                                                                  
C40  36075317.326   189577105.29607      -120.866          45.562    36075319.455   187853645.80107      -119.767          46.625    36075319.478   152646473.14708       -97.321          48.312                                                                  
C44  22021402.539   115723331.77107      1187.638          43.625    22021411.256   114671302.56908      1176.841          47.938    22021407.466    93179837.28208       956.280          50.062                                                                  
C59                                                                  38125848.307   198531241.79507       -57.280          43.938    38125837.722   161322946.01307       -46.545          44.875    38125837.300   153516984.87407       -44.293          46.688  
C60                                                                  38708902.300   201567380.32807       -52.072          43.500    38708888.133   163790005.37007       -42.313          43.188    38708889.694   155864685.24707       -40.266          45.250  
C61                                                                                                                                                                                                  37633034.133   151532562.42508       -36.239          47.062  
C62                                                                  38284660.326   199358232.36208        -0.000          47.438    38284657.462   161994909.67407        -0.000          43.875    38284642.712   154156434.77909        -0.000          53.188  
E02  24274716.971   127564535.29007      1991.658          43.938    24274724.326    95259199.54808      1487.277          48.125    24274724.088   103542638.11808      1616.606          48.188    24274720.262    97744244.03508      1526.076          49.562  
E15  26459173.384   139043965.35906     -2338.491          38.875    26459187.745   103831639.53207     -1746.276          42.562    26459183.650   112860468.24507     -1898.126          44.562    26459182.010   106540203.15007     -1791.831          44.438  
E18  20860111.736   109620733.08307     -4692.746          46.250    20860116.026    81859648.80308     -3504.324          48.375                                                                    20860111.917    83995102.02308     -3595.741          50.750  
E30  23988722.060   126061627.35507      -777.745          45.812    23988724.714    94136941.16408      -580.784          48.312    23988722.582   102322757.82408      -631.287          49.688    23988720.390    96592686.60608      -595.935          50.000  
E34  23445414.289   123206501.48407      -409.893          46.500    23445417.319    92004877.48008      -306.089          48.312    23445415.195   100005297.69608      -332.705          50.062    23445413.588    94405002.14608      -314.074          50.750  
E36  24889450.416   130794887.59907      1960.128          44.125    24889457.471    97671525.91608      1463.732          47.875    24889455.161   106164709.10708      1591.013          48.625    24889453.228   100219479.12908      1501.917          50.062  
G01  23570447.237   123863553.63106      3147.766          36.188    23570445.700    96517058.60706      2452.805          36.312    23570448.640    92495522.25006      2350.605          37.750  
G03  21338395.482   112134265.62107      1103.557          43.375    21338397.634    87377408.79607       859.915          42.938    21338399.367    83736695.58608       824.085          49.438  
G06  21456573.603   112755161.02807     -1739.417          46.188    21456581.873    87861257.61308     -1355.390          48.000    21456577.777    84200383.39608     -1298.915          51.188  
G11  24806703.317   130360152.58906     -3079.451          37.062    24806719.966   101579352.44606     -2399.572          40.000    24806719.610    97346882.44006     -2299.590          39.312  
G14  21034032.032   110534606.80407      2532.927          44.188    21034033.594    86130863.45507      1973.709          44.438    21034041.129    82542077.71308      1891.471          49.125  
G17  20769010.716   109141946.30108        73.571          47.188    20769010.461    85045685.93507        57.328          46.438                                                                  
G19  20712903.935   108847082.37107     -1707.886          45.688    20712901.067    84815927.91807     -1330.820          42.062                                                                  
G22  20890223.598   109778891.01907      1282.229          46.750    20890221.552    85542001.71207       999.139          42.875                                                                  
G24  24820214.949   130431112.85406      1145.598          35.438    24820226.177   101634622.77006       892.673          35.438    24820227.003    97399843.48906       855.479          40.125  
R03  23117664.644   123744521.66703      1092.028          21.125    23117677.544    96245739.07502       849.355          16.750  
R04  22185242.263   118801106.74207     -2099.142          45.250    22185248.622    92400892.05307     -1632.666          44.750  
R05  23643597.182   126388664.22707     -3928.996          43.062    23643611.947    98302324.22407     -3055.886          42.562  
R09  21026206.239   112278738.65208      3652.522          47.875    21026208.638    87327921.58808      2840.851          49.062  
R10  20158817.544   107457850.78207       271.859          45.438                                                                  
R11  22592903.254   120722589.84405     -3361.185          30.125    22592912.182    93900833.62505     -2614.255          31.125  
R19  20863755.054   111607070.26708      2262.765          48.562    20863757.064    86805515.15508      1759.928          49.625  
R20  19869681.765   106252231.29208      -545.440          50.438    19869679.324    82640656.79208      -424.231          49.438  
R21  22785825.656   121931632.18807     -2616.738          43.500    22785836.125    94835736.52907     -2035.241          43.625  
> 2026 03 22 06 04 30.0000000  0 48                     
C01                                                                  38313814.933   199510100.76207       -20.829          42.312    38313818.188   162118283.96506       -16.925          39.688                                                                  
C02                                                                  38348085.316   199688495.73706       -36.451          40.125    38348080.333   162263291.26006       -29.619          39.375                                                                  
C03                                                                  37345574.332   194468162.17507       -36.451          44.000    37345576.021   158021362.93007       -29.619          42.438                                                                  
C04                                                                  39252841.363   204399787.30906       -98.938          40.812    39252839.501   166091604.10506       -80.395          40.000                                                                  
C05                                                                  40342021.085   210071466.02806        10.415          37.875    40342023.351   170700288.20706         8.463          35.875                                                                  
C06                                                                  40042425.565   208511313.91106      1905.858          35.312    40042437.024   169432406.51006      1548.666          39.500                                                                  
C07                                                                  35738698.680   186100750.99207      -197.876          46.938    35738692.145   151222132.44907      -160.790          46.000                                                                  
C09                                                                  38790000.557   201989515.57206      1890.236          37.688    38790000.404   164133054.93706      1535.972          40.750                                                                  
C10                                                                  36434342.170   189723184.19007      -395.752          45.438    36434338.673   154165625.90307      -321.581          44.688                                                                  
C12                                                                  21802549.322   113531672.04507       -20.829          46.750    21802547.076    92253798.51408       -16.925          48.750                                                                  
C16                                                                  40635788.811   211600729.09806      1812.127          39.438    40635811.097   171942840.26406      1472.502          35.000                                                                  
C19  26014944.850   136703070.41002      1166.619          14.562    26014939.982   135460315.22502      1156.012          16.250    26014901.855   110072602.14803       939.355          20.375                                                                  
C22  24053762.831   126403612.27906     -1513.450          40.312    24053769.824   125254489.12707     -1499.692          46.250    24053762.861   101779578.49307     -1218.622          45.375                                                                  
C24  23905108.400   125622185.62307      2732.619          42.188    23905114.582   124480164.06307      2707.777          45.688    23905113.275   101150320.86307      2200.290          46.375                                                                  
C25  23416923.978   123056820.01007      -105.101          43.375    23416928.126   121938123.51707      -104.145          46.500    23416929.434    99084717.88407       -84.627          46.750                                                                  
C34  22235660.650   116849291.19807     -1292.739          45.500    22235667.415   115787026.25708     -1280.987          48.500    22235666.052    94086462.58908     -1040.907          47.250                                                                  
C35  25698780.321   135047982.59706      2459.357          39.500    25698780.545   133820279.10307      2436.999          41.188    25698781.521   108739927.50306      1980.261          39.562                                                                  
C38  38124098.621   200343854.13007     -1755.182          41.312    38124104.933   198522549.22107     -1739.226          45.438    38124100.105   161315904.43707     -1413.264          44.812                                                                  
C40  36074970.946   189575279.83507      -120.866          46.250    36074973.664   187851836.93708      -119.767          48.125    36074972.114   152645003.31508       -97.321          48.438                                                                  
C44  22024794.596   115741134.68307      1187.638          45.250    22024795.020   114688943.66508      1176.841          47.062    22024795.267    93194172.10608       956.280          50.188                                                                  
C59                                                                  38125678.290   198530355.38407       -57.280          44.812    38125667.556   161322225.73307       -46.545          44.812    38125667.050   153516299.46607       -44.293          46.000  
C60                                                                  38708760.975   201566644.83207       -46.866          44.312    38708746.773   163789407.73507       -38.082          43.312    38708748.369   155864116.53807       -36.239          44.562  
C61                                                                                                                                                                                                  37632893.572   151531996.47407       -36.239          46.500  
C62                                                                  38284657.970   199358221.08808        -0.000          48.125    38284655.275   161994900.51307        -0.000          44.000    38284640.473   154156426.08708        -0.000          52.562  
E02  24280402.804   127594414.85007      1991.659          44.312    24280410.148    95281512.19708      1487.278          47.875    24280409.775   103566891.00108      1616.606          47.875    24280406.159    97767138.75908      1526.076          49.062  
E15  26452496.260   139008875.13606     -2338.491          39.000    26452510.345   103805435.90707     -1746.276          42.312    26452504.766   112831986.01107     -1898.126          44.438    26452504.551   106513315.94107     -1791.831          44.062  
E18  20846728.286   109550395.60407     -4687.492          46.188    20846731.237    81807124.09608     -3500.400          48.125                                                                    20846727.095    83941207.10408     -3591.714          50.312  
E30  23986515.480   126050031.91507      -772.490          45.938    23986518.211    94128282.25608      -576.859          48.062    23986516.177   102313345.95808      -627.021          49.500    23986513.839    96583801.82208      -591.908          49.562  
E34  23444248.346   123200391.08207      -404.638          46.500    23444254.622    92000314.55808      -302.165          48.062    23444252.487   100000337.97908      -328.440          50.000    23444250.821    94400320.18208      -310.047          50.312  
E36  24895052.537   130824332.20807      1965.383          44.438    24895060.649    97693513.75808      1467.656          47.688    24895059.819   106188608.92708      1595.279          48.625    24895056.320   100242040.56108      1505.943          49.750  
G01  23579429.637   123910777.19305      3147.766          33.062    23579431.573    96553856.12506      2452.805          35.000    23579435.237    92530786.60406      2350.605          37.500  
G03  21341558.066   112150888.11607      1114.067          43.062    21341560.605    87390361.40607       868.105          41.750    21341562.644    83749108.52608       831.933          49.562  
G06  21451611.994   112729084.99207     -1734.162          46.375    21451619.265    87840938.67708     -1351.295          47.125    21451615.727    84180911.10808     -1294.991          51.000  
G11  24797920.336   130313999.39406     -3074.196          37.438    24797935.815   101543389.06806     -2395.477          38.750    24797937.160    97312417.63506     -2295.666          39.312  
G14  21041271.571   110572644.90207      2538.182          45.125    21041272.993    86160503.49307      1977.804          43.812    21041279.685    82570482.75508      1895.396          48.938  
G17  20769233.954   109143121.69607        78.826          46.062    20769235.918    85046601.86707        61.423          46.188                                                                  
G19  20708038.794   108821530.85807     -1702.631          44.500    20708038.617    84796017.68707     -1326.726          42.562                                                                  
G22  20893893.610   109798181.72307      1287.484          46.688    20893892.408    85557033.43707      1003.234          43.000                                                                  
G24  24823494.250   130448339.56506      1150.853          36.250    24823504.806   101648046.16105       896.768          34.625    24823505.058    97412707.53806       859.403          39.875  
R03  23120753.305   123760193.66504      1102.734          24.125    23120752.085    96257928.40602       857.682          14.000  
R04  22179377.526   118769714.81507     -2088.432          45.500    22179383.708    92376476.20207     -1624.336          43.438  
R05  23632575.902   126329738.60407     -3928.996          44.625    23632588.284    98256493.69407     -3055.886          41.688  
R09  21036484.303   112333621.59908      3663.202          48.812    21036487.136    87370608.22808      2849.157          48.625  
R10  20159603.500   107462033.91407       287.850          46.688                                                                  
R11  22583487.658   120679284.73605     -3350.498          31.375    22583493.068    93861668.36705     -2605.943          30.750  
R19  20870105.646   111641042.76408      2268.114          49.812    20870104.371    86831938.19208      1764.089          48.125  
R20  19868158.803   106244093.34808      -540.092          51.062    19868160.131    82634327.31008      -420.072          49.125  
R21  22778483.309   121892376.96407     -2616.738          41.750    22778497.795    94805204.85107     -2035.240          42.688  
> 2026 03 22 06 04 45.0000000  0 48                     
C01                                                                  38313751.212   199509769.02707       -20.829          42.188    38313754.448   162118014.40206       -16.925          39.375                                                                  
C02                                                                  38347982.375   199687960.94806       -36.451          40.062    38347977.625   162262856.72106       -29.619          39.188                                                                  
C03                                                                  37345465.584   194467596.16807       -36.451          43.688    37345467.331   158020903.03207       -29.619          42.125                                                                  
C04                                                                  39252564.178   204398343.14306       -98.938          40.688    39252562.205   166090430.60606       -80.395          39.562                                                                  
C05                                                                  40342056.004   210071650.85306        10.415          37.750    40342058.943   170700438.42306         8.463          35.688                                                                  
C06                                                                  40047924.857   208539944.94105      1905.858          34.938    40047934.988   169455671.29106      1548.666          39.062                                                                  
C07                                                                  35738134.823   186097811.83607      -197.876          46.875    35738127.741   151219744.14307      -160.790          45.688                                                                  
C09                                                                  38795444.078   202017869.62406      1890.236          36.938    38795445.533   164156094.83006      1535.972          40.375                                                                  
C10                                                                  36433204.136   189717256.77807      -395.752          45.312    36433200.429   154160809.40307      -321.581          44.312                                                                  
C12                                                                  21802494.795   113531381.42408       -20.829          47.562    21802491.266    92253562.35308       -16.925          48.625                                                                  
C16                                                                  40641010.286   211627918.27706      1812.127          38.750    40641032.679   171964932.96705      1472.502          34.625                                                                  
C19  26018296.635   136721532.36303      1177.128          19.625    26018291.545   135478609.34204      1166.427          25.875                                                                                                                                  
C22  24049453.742   126380961.46407     -1508.195          41.312    24049458.436   125232044.23207     -1494.484          45.625    24049452.686   101761340.22407     -1214.391          45.438                                                                  
C24  23912923.252   125663242.43807      2737.874          42.875    23912926.321   124520847.63407      2712.984          44.875    23912925.892   101183379.53107      2204.522          45.938                                                                  
C25  23416637.048   123055302.13307       -99.845          43.250    23416639.093   121936619.43207       -98.938          46.500    23416640.621    99083495.68207       -80.395          46.562                                                                  
C34  22231978.075   116829919.03007     -1292.739          45.688    22231977.751   115767830.22608     -1280.986          48.000    22231979.706    94070864.24208     -1040.906          47.000                                                                  
C35  25705802.522   135084891.13906      2459.357          39.188    25705802.831   133856852.14507      2436.999          41.000    25705805.178   108769646.01006      1980.261          39.125                                                                  
C38  38119082.191   200317506.96706     -1755.182          40.938    38119089.977   198496441.58907     -1739.226          44.875    38119086.417   161294689.87707     -1413.263          44.625                                                                  
C40  36074625.541   189573456.90107      -120.866          46.875    36074628.168   187850030.56908      -119.767          48.500    36074625.231   152643535.49008       -97.321          48.125                                                                  
C44  22028188.637   115758982.97107      1192.893          44.125    22028193.884   114706629.70408      1182.048          48.500    22028191.613    93208543.45808       960.511          49.812                                                                  
C59                                                                  38125508.742   198529472.39707       -57.280          44.688    38125497.974   161321508.23207       -46.545          44.625    38125497.457   153515616.69007       -44.293          46.250  
C60                                                                  38708620.505   201565912.84907       -52.072          44.000    38708606.267   163788812.95007       -42.313          43.125    38708607.937   155863550.52107       -40.266          44.875  
C61                                                                                                                                                                                                  37632753.738   151531433.44507       -36.239          46.750  
C62                                                                  38284656.753   199358214.63908        -0.000          47.938    38284653.941   161994895.29607        -0.000          43.750    38284639.272   154156421.10508        -0.000          52.812  
E02  24286104.301   127624374.02707      1996.914          44.812    24286111.209    95303884.27908      1491.202          48.000    24286110.539   103591208.49608      1620.872          47.562    24286107.155    97790094.47008      1530.103          49.250  
E15  26445828.614   138973833.57506     -2333.236          39.062    26445841.926   103779268.61707     -1742.352          42.688    26445836.883   112803543.25007     -1893.860          44.125    26445836.297   106486466.00107     -1787.804          44.500  
E18  20833345.863   109480087.19607     -4687.492          46.438    20833352.017    81754621.07708     -3500.400          48.438                                                                    20833347.815    83887334.43408     -3591.714          50.562  
E30  23984326.772   126038530.66007      -761.980          46.125    23984329.616    94119693.66608      -569.011          48.438    23984327.536   102304010.55008      -618.491          49.188    23984325.167    96574989.17708      -583.855          49.750  
E34  23443099.123   123194357.25407      -399.383          46.625    23443106.428    91995808.78708      -298.240          48.438    23443104.534    99995440.40308      -324.174          49.750    23443102.572    94395696.86208      -306.021          50.625  
E36  24900665.366   130853815.29407      1965.383          45.500    24900671.107    97715530.32308      1467.656          47.938    24900670.637   106212540.00008      1595.279          48.312    24900666.834   100264631.48208      1505.943          50.000  
G01  23588412.106   123957944.96905      3147.766          29.188    23588421.178    96590667.07406      2452.805          35.000    23588424.668    92566063.72706      2350.605          37.438  
G03  21344751.448   112167671.51907      1124.577          42.875    21344754.278    87403439.37607       876.294          41.562    21344756.491    83761641.56008       839.782          49.875  
G06  21446665.466   112703101.92407     -1728.907          45.562    21446674.326    87820692.16007     -1347.200          46.938    21446671.366    84161508.21008     -1291.067          51.062  
G11  24789143.740   130267884.66306     -3074.196          38.062    24789161.528   101507455.75006     -2395.477          39.000    24789161.413    97277981.52606     -2295.666          39.562  
G14  21048532.282   110610797.11507      2548.692          45.688    21048534.752    86190232.45207      1985.994          44.250    21048539.882    82598973.00008      1903.244          49.000  
G17  20769468.856   109144362.95307        84.081          46.500    20769472.145    85047569.02507        65.517          46.188                                                                  
G19  20703190.687   108796038.93007     -1697.377          46.562    20703187.791    84776153.84507     -1322.631          42.688                                                                  
G22  20897587.850   109817599.09707      1297.994          46.750    20897587.631    85572163.82407      1011.424          43.500                                                                  
G24  24826796.035   130465685.95206      1161.363          36.625    24826804.917   101661562.81006       904.958          35.500    24826807.567    97425660.97706       867.251          40.688  
R03  23123856.414   123777432.86104      1113.440          24.000                                                                  
R04  22173544.216   118738479.39507     -2077.722          46.125    22173549.011    92352182.04907     -1616.006          43.000  
R05  23621554.171   126270829.84007     -3928.996          43.812    23621567.733    98210676.29907     -3055.886          41.625  
R09  21046784.408   112388617.73408      3668.542          48.812    21046786.414    87413382.91208      2853.310          48.688  
R10  20160428.941   107466427.29808       298.512          47.250                                                                  
R11  22574091.172   120629066.85205     -3345.154          31.938    22574096.285    93822610.10205     -2601.787          32.250  
R19  20876466.287   111675058.67608      2268.114          49.875    20876466.966    86858394.99508      1764.089          49.812  
R20  19866655.231   106236042.31108      -534.745          51.250    19866652.116    82628065.42508      -415.913          48.438  
R21  22771158.860   121853173.45707     -2611.387          43.875    22771165.048    94774713.34507     -2031.079          41.312  
> 2026 03 22 06 05  0.0000000  0 48                     
C01                                                                  38313683.083   199509415.44707       -20.829          41.812    38313686.488   162117727.08906       -16.925          40.125                                                                  
C02                                                                  38347875.497   199687402.60406       -36.451          39.750    38347870.406   162262403.03106       -29.619          39.875                                                                  
C03                                                                  37345352.606   194467008.10407       -36.451          43.250    37345354.357   158020425.18707       -29.619          42.750                                                                  
C04                                                                  39252282.758   204396877.18806       -98.938          40.375    39252280.606   166089239.41106       -80.395          40.312                                                                  
C05                                                                  40342087.238   210071812.69406        10.415          37.375    40342089.895   170700569.90606         8.463          36.062                                                                  
C06                                                                  40053418.391   208568547.49106      1905.858          35.250    40053428.754   169478912.87206      1548.666          39.750                                                                  
C07                                                                  35737567.748   186094853.44907      -197.876          46.875    35737559.614   151217340.20307      -160.790          46.312                                                                  
C09                                                                  38800885.880   202046209.23506      1890.236          37.125    38800887.876   164179122.95207      1535.972          41.062                                                                  
C10                                                                  36432062.109   189711306.54907      -395.752          45.188    36432057.728   154155974.34507      -321.581          45.000                                                                  
C12                                                                  21802444.619   113531116.36808       -15.622          47.000    21802440.395    92253346.98508       -12.694          49.125                                                                  
C16                                                                  40646226.811   211655073.83606      1812.127          38.375    40646248.451   171986998.29306      1472.502          35.125                                                                  
C19  26021671.714   136738455.82003      1187.638          22.250    26021677.926   135495378.94904      1176.842          25.312    26021642.886   110101094.29703       956.280          20.500                                                                  
C22  24045161.275   126358394.88907     -1497.685          41.312    24045163.593   125209682.82007     -1484.070          45.125    24045158.339   101743169.76807     -1205.928          46.000                                                                  
C24  23920745.377   125704337.34507      2743.128          42.500    23920744.918   124561568.95707      2718.191          43.938    23920745.789   101216468.86507      2208.753          46.438                                                                  
C25  23416370.229   123053887.82907       -89.336          42.500    23416370.840   121935217.98407       -88.523          46.375    23416371.559    99082356.89008       -71.933          47.188                                                                  
C34  22228295.440   116810567.42107     -1287.484          44.938    22228299.551   115748654.52608     -1275.779          48.812    22228297.285    94055282.42208     -1036.675          47.562                                                                  
C35  25712820.475   135121783.28606      2459.357          37.750    25712823.725   133893408.93007      2436.999          41.438    25712825.638   108799351.33106      1980.261          39.625                                                                  
C38  38114068.252   200291161.11206     -1755.182          40.562    38114075.302   198470335.27307     -1739.226          43.938    38114072.981   161273476.38907     -1413.263          45.188                                                                  
C40  36074275.925   189571610.07307      -120.866          46.500    36074277.965   187848200.51908      -119.767          48.500    36074273.763   152642048.42508       -97.321          48.812                                                                  
C44  22031589.129   115776850.19707      1192.893          44.375    22031593.634   114724334.44807      1182.049          46.938    22031591.673    93222930.00308       960.511          50.438                                                                  
C59                                                                  38125334.619   198528566.64107       -57.280          44.188    38125323.944   161320772.25307       -46.545          45.125    38125323.539   153514916.30807       -44.293          46.625  
C60                                                                  38708475.583   201565158.22207       -46.866          43.625    38708461.372   163788199.73507       -38.082          43.688    38708462.933   155862966.99807       -36.239          45.188  
C61                                                                                                                                                                                                  37632609.598   151530853.14908       -36.239          47.062  
C62                                                                  38284651.282   199358186.83808        -0.000          47.562    38284648.657   161994872.68407        -0.000          44.375    38284633.931   154156399.60909        -0.000          53.188  
E02  24291816.131   127654386.32307      2002.169          44.375    24291822.364    95326296.01908      1495.126          48.062    24291821.696   103615569.09708      1625.137          47.750    24291818.355    97813090.86908      1534.129          49.312  
E15  26439164.839   138938814.30806     -2333.236          38.250    26439177.813   103753117.95007     -1742.351          42.562    26439172.415   112775118.57307     -1893.860          44.188    26439172.238   106459633.13207     -1787.804          44.500  
E18  20819970.111   109409781.93607     -4687.491          46.250    20819973.416    81702120.42708     -3500.399          48.438                                                                    20819969.027    83833464.20008     -3591.714          50.688  
E30  23982150.730   126027097.34607      -756.725          45.438    23982153.904    94111155.80708      -565.087          48.312    23982151.778   102294730.24008      -614.225          49.312    23982149.465    96566228.59208      -579.828          49.938  
E34  23441962.858   123188373.49907      -394.128          46.375    23441967.775    91991340.41508      -294.316          48.375    23441965.940    99990583.45608      -319.909          50.062    23441963.872    94391111.91708      -301.994          50.750  
E36  24906279.499   130883310.29407      1970.638          45.000    24906283.779    97737555.82108      1471.580          47.812    24906282.062   106236480.73508      1599.544          48.438    24906279.568   100287231.54908      1509.969          50.188  
G01  23597405.709   124005178.36805      3147.766          32.750    23597410.492    96627470.67406      2452.805          35.750    23597412.337    92601333.87206      2350.605          37.438  
G03  21347970.302   112184589.22207      1135.088          42.250    21347971.892    87416621.99807       884.484          41.750    21347975.921    83774274.88608       847.630          50.188  
G06  21441731.372   112677185.41307     -1723.652          44.500    21441738.390    87800497.48807     -1343.105          46.562    21441739.512    84142154.98708     -1287.142          51.125  
G11  24780369.548   130221782.11906     -3074.195          36.938    24780390.570   101471531.89106     -2395.477          39.625    24780388.752    97243554.55406     -2295.665          39.688  
G14  21055809.758   110649036.77907      2553.947          46.000    21055812.076    86220029.55007      1990.089          44.938    21055816.678    82627528.52908      1907.168          49.125  
G17  20769715.381   109145643.49608        89.336          47.438    20769714.894    85048566.88007        69.612          46.562                                                                  
G19  20698344.090   108770580.37307     -1692.122          44.812    20698343.057    84756316.03307     -1318.536          42.750                                                                  
G22  20901300.964   109837116.52907      1308.504          46.188    20901301.685    85587372.19007      1019.613          43.312                                                                  
G24  24830113.389   130483125.46206      1166.618          35.688    24830123.113   101675151.93806       909.053          36.125    24830126.438    97438683.90307       871.176          41.000  
R03  23126999.878   123794672.05804      1129.499          24.625                                                                  
R04  22167737.933   118707374.33807     -2067.013          46.688    22167739.531    92327989.28707     -1607.676          43.188  
R05  23610532.620   126211911.47807     -3928.996          43.625    23610546.581    98164851.40707     -3055.886          42.688  
R09  21057100.326   112443699.78308      3679.221          48.438    21057101.879    87456224.40108      2861.617          49.062  
R10  20161288.821   107471003.92808       314.503          47.062                                                                  
R11  22564706.438   120578956.27105     -3334.467          30.438    22564718.658    93783628.30305     -2593.474          30.750  
R19  20882825.602   111709088.77308      2273.463          49.188    20882828.138    86884862.76608      1768.249          49.688  
R20  19865157.130   106228051.25708      -529.397          50.312    19865159.166    82621850.15808      -411.754          49.750  
R21  22763838.667   121813994.84807     -2611.386          42.750    22763845.649    94744241.22307     -2031.078          42.062  
> 2026 03 22 06 05 15.0000000  0 48                     
C01                                                                  38313621.724   199509095.61507       -20.829          41.500    38313625.047   162117467.23606       -16.925          39.625                                                                  
C02                                                                  38347774.288   199686876.22106       -36.451          39.312    38347769.357   162261975.31006       -29.619          39.438                                                                  
C03                                                                  37345246.320   194466453.57507       -36.451          43.125    37345247.884   158019974.58707       -29.619          42.312                                                                  
C04                                                                  39252007.678   204395444.97406       -98.938          40.250    39252005.521   166088075.63906       -80.395          39.875                                                                  
C05                                                                  40342124.517   210072007.10606        10.415          36.875    40342127.109   170700727.90706         8.463          35.938                                                                  
C06                                                                  40058915.916   208597176.96705      1905.858          34.375    40058926.180   169502176.39406      1548.666          38.875                                                                  
C07                                                                  35737007.597   186091931.49908      -197.876          47.000    35736998.411   151214965.88707      -160.790          45.938                                                                  
C09                                                                  38806334.651   202074589.86806      1890.236          36.188    38806338.228   164202184.44606      1535.972          40.625                                                                  
C10                                                                  36430926.836   189705388.99607      -395.752          45.188    36430921.312   154151165.86007      -321.581          44.625                                                                  
C12                                                                  21802408.471   113530932.50008       -10.415          47.125    21802405.088    92253197.58208        -8.463          48.875                                                                  
C16                                                                  40651446.531   211682251.24106      1812.127          38.750    40651468.567   172009081.50005      1472.502          34.688                                                                  
C19  26025079.038   136756917.77303      1192.893          21.750    26025086.331   135513673.06604      1182.049          23.125    26025049.773   110115959.76603       960.511          19.938                                                                  
C22  24040895.123   126335968.82407     -1492.430          42.500    24040894.748   125187460.61407     -1478.863          44.312    24040890.902   101725112.48107     -1201.697          45.688                                                                  
C24  23928585.153   125745526.11607      2748.383          43.625    23928582.349   124602383.25207      2723.398          43.562    23928583.731   101249633.77407      2212.984          45.875                                                                  
C25  23416133.417   123052633.14407       -78.826          43.375    23416134.178   121933974.70907       -78.109          46.500    23416132.854    99081346.62607       -63.470          46.938                                                                  
C34  22224624.122   116791292.39807     -1287.483          45.812    22224630.058   115729554.73308     -1275.779          48.125    22224629.350    94039762.32308     -1036.675          47.250                                                                  
C35  25719847.032   135158715.14906      2459.357          37.625    25719853.248   133930005.07307      2436.999          42.125    25719853.942   108829088.67606      1980.261          39.062                                                                  
C38  38109065.992   200264872.72207     -1755.182          41.000    38109070.082   198444285.85107     -1739.225          43.062    38109070.513   161252309.15007     -1413.263          44.938                                                                  
C40  36073931.432   189569795.46508      -120.866          47.125    36073933.015   187846402.40708      -119.767          48.250    36073928.465   152640587.33008       -97.321          48.438                                                                  
C44  22035005.811   115794792.30807      1198.148          44.875    22035005.228   114742113.49707      1187.256          46.688    22035005.945    93237376.90708       964.742          50.000                                                                  
C59                                                                  38125166.984   198527693.67807       -57.280          43.938    38125156.393   161320062.91007       -46.545          44.875    38125155.885   153514241.28007       -44.293          46.500  
C60                                                                  38708336.992   201564436.46807       -46.866          43.438    38708322.719   163787613.25607       -38.082          43.375    38708324.302   155862408.89107       -36.239          45.062  
C61                                                                                                                                                                                                  37632471.886   151530298.49807       -36.239          46.938  
C62                                                                  38284652.639   199358193.26508        -0.000          47.250    38284649.877   161994877.92707        -0.000          43.938    38284635.128   154156404.57409        -0.000          53.062  
E02  24297548.683   127684507.68607      2007.424          45.250    24297554.376    95348789.20208      1499.050          48.375    24297553.591   103640018.23808      1629.402          47.312    24297550.293    97836170.83508      1538.156          49.500  
E15  26432515.532   138903873.44006     -2327.981          38.188    26432528.584   103727025.83707     -1738.427          42.750    26432523.716   112746757.55307     -1889.595          43.938    26432523.104   106432860.33707     -1783.778          44.812  
E18  20806602.462   109339536.41407     -4682.237          46.438    20806606.148    81649664.36408     -3496.475          48.750                                                                    20806601.670    83779639.71008     -3587.688          50.875  
E30  23979997.939   126015788.16407      -751.470          45.875    23980001.833    94102710.62908      -561.163          48.688    23979999.760   102285550.72808      -609.960          49.062    23979997.333    96557563.10208      -575.802          50.125  
E34  23440846.313   123182495.79908      -388.873          47.000    23440849.308    91986951.22608      -290.392          48.688    23440847.761    99985812.60608      -315.644          49.750    23440845.370    94386608.22708      -297.967          50.938  
E36  24911903.152   130912873.16307      1970.638          44.562    24911909.474    97759631.95508      1471.581          48.125    24911906.344   106260476.56908      1599.544          48.000    24911905.237   100309883.59108      1509.970          50.375  
G01  23606407.834   124052456.08306      3153.021          35.438    23606409.817    96664310.41906      2456.900          36.438    23606408.786    92636638.57606      2354.529          37.250  
G03  21351225.696   112201697.09907      1145.598          42.062    21351227.189    87429952.80907       892.673          41.875    21351231.440    83787050.23508       855.479          50.312  
G06  21436824.641   112651391.50307     -1718.397          45.500    21436827.729    87780398.35107     -1339.010          46.500    21436830.890    84122893.31608     -1283.218          51.062  
G11  24771609.390   130175747.97006     -3068.941          37.250    24771630.627   101435661.28906     -2391.382          39.562    24771628.445    97209178.61706     -2291.741          39.750  
G14  21063114.275   110687419.67607      2559.202          46.125    21063117.663    86249938.24707      1994.184          45.500    21063120.753    82656191.02808      1911.093          49.062  
G17  20769973.614   109147019.84207        94.590          45.375    20769979.798    85049639.31608        73.707          47.375                                                                  
G19  20693518.088   108745211.44307     -1692.121          46.312    20693515.331    84736548.04307     -1318.536          42.875                                                                  
G22  20905044.206   109856789.97807      1313.759          45.688    20905045.526    85602702.12507      1023.708          43.500                                                                  
G24  24833459.889   130500713.81506      1177.128          35.250    24833469.789   101688857.09806       917.242          36.062    24833473.776    97451817.99107       879.024          41.188  
R03  23130147.570   123811911.25503      1140.206          17.938                                                                  
R04  22161966.995   118676456.96508     -2056.303          47.562    22161965.096    92303942.51007     -1599.347          42.812  
R05  23599519.360   126153041.15107     -3923.651          44.312    23599533.894    98119063.86607     -3051.728          43.250  
R09  21067441.516   112498923.93008      3684.561          48.125    21067445.399    87499176.41608      2865.770          48.938  
R10  20162190.201   107475820.66608       325.164          47.125                                                                  
R11  22555361.649   120528993.51505     -3329.123          31.875    22555358.452    93744762.46305     -2589.318          30.500  
R19  20889203.248   111743192.52308      2273.463          49.812    20889201.337    86911387.94608      1768.249          49.625  
R20  19863685.577   106220177.03608      -524.050          50.812    19863688.637    82615725.79708      -407.594          50.188  
R21  22756532.099   121774898.23607     -2606.035          44.062    22756540.977    94713832.86807     -2026.916          43.750  
