     3.04           OBSERVATION DATA    M                   RINEX VERSION / TYPE
GNSS_ToolBox        RTGS                20260322 061252 UTC PGM / RUN BY / DATE
BUAA                                                        MARKER NAME
0                                                           MARKER NUMBER
Automatic           RTGS                                    OBSERVER / AGENCY
00                  Generic                                 REC # / TYPE / VERS
                    UNKNOWN                                 ANT # / TYPE
 -2171604.0179  4385718.2170  4076741.0244                  APPROX POSITION XYZ
        0.0000        0.0000        0.0000                  ANTENNA: DELTA H/E/N
C   16 C1P L1P D1P S1P C2I L2I D2I S2I C6I L6I D6I S6I C7D  SYS / # / OBS TYPES
       L7D D7D S7D                                          SYS / # / OBS TYPES
E   16 C1C L1C D1C S1C C5Q L5Q D5Q S5Q C6C L6C D6C S6C C7Q  SYS / # / OBS TYPES
       L7Q D7Q S7Q                                          SYS / # / OBS TYPES
G   12 C1C L1C D1C S1C C2W L2W D2W S2W C5Q L5Q D5Q S5Q      SYS / # / OBS TYPES
R    8 C1C L1C D1C S1C C2C L2C D2C S2C                      SYS / # / OBS TYPES
DBHZ                                                        SIGNAL STRENGTH UNIT
    30.000                                                  INTERVAL
  2026    03    22    06    11   30.0000000     GPS         TIME OF FIRST OBS
  2026    03    22    06    12   30.0000000     GPS         TIME OF LAST OBS
                                                            END OF HEADER
> 2026 03 22 06 11 30.0000000  0 47                     
C01                                                                  38311986.031   199500570.81507       -20.829          41.438    38311987.678   162110540.35606       -16.925          39.500                                                                  
C02                                                                  38345035.669   199672621.37506       -41.658          38.625    38345031.656   162250392.30806       -33.850          39.188                                                                  
C03                                                                  37342467.184   194451983.19707       -36.451          42.625    37342468.801   158008216.37607       -29.620          42.125                                                                  
C04                                                                  39245031.964   204359130.43806       -98.938          38.812    39245030.879   166058567.58806       -80.395          39.500                                                                  
C05                                                                  40342882.577   210075963.07706        10.414          36.188    40342886.627   170703942.79706         8.463          35.750                                                                  
C06                                                                  40195807.464   209309968.22605      1895.443          32.250    40195816.510   170081369.22906      1540.203          35.562                                                                  
C07                                                                  35723056.950   186019296.08707      -192.669          46.062    35723049.481   151155943.75407      -156.559          46.000                                                                  
C09                                                                  38942906.277   202785719.09906      1900.651          38.625    38942902.707   164780032.66806      1544.434          37.000                                                                  
C10                                                                  36402363.071   189556650.89407      -395.752          44.500    36402357.573   154030304.09607      -321.581          44.688                                                                  
C12                                                                  21804356.472   113541086.86607        67.694          45.625    21804355.054    92261448.98408        55.007          48.750                                                                  
C16                                                                  40781056.516   212357077.06706      1786.091          37.625    40781078.599   172557416.19605      1451.345          32.500                                                                  
C19                                                                  26117368.068   135993893.64302      1359.096          13.812                                                                                                                                  
C22  23940816.781   125810069.82107     -1308.504          41.000    23940820.481   124666342.46807     -1296.609          44.125    23940815.112   101301662.39307     -1053.601          45.812                                                                  
C24  24127964.032   126793269.35006      2837.719          40.875    24127968.161   125640601.48707      2811.922          44.438    24127967.198   102093269.33208      2284.917          47.125                                                                  
C25  23417816.365   123061471.50307       126.121          43.125    23417817.311   121942732.70307       124.974          46.250    23417814.643    99088463.15807       101.552          46.500                                                                  
C34  22135459.285   116322721.90207     -1213.913          45.812    22135463.762   115265243.98708     -1202.878          47.750    22135462.735    93662472.26508      -977.437          47.250                                                                  
C35  25895783.954   136083262.79906      2469.867          36.000    25895788.336   134846147.70306      2447.413          39.938    25895790.539   109573528.57906      1988.724          39.312                                                                  
C38  37985382.531   199614900.00107     -1713.142          41.562    37985381.599   197800222.04607     -1697.568          42.812    37985384.219   160728955.65007     -1379.413          45.562                                                                  
C40  36065096.330   189523388.46007      -126.121          45.438    36065099.776   187800417.31508      -124.974          47.625    36065097.593   152603220.72508      -101.552          48.625                                                                  
C44  22122764.003   116255976.53507      1261.209          44.125    22122769.528   115199105.08307      1249.743          46.688    22122766.051    93608719.92608      1015.519          48.750                                                                  
C59                                                                  38120814.623   198505032.94807       -62.487          43.375    38120804.206   161301649.42907       -50.776          44.688    38120804.055   153496718.84007       -48.319          46.625  
C60                                                                  38704716.540   201545588.79807       -52.073          42.812    38704703.189   163772298.16607       -42.313          43.250    38704704.778   155847834.89707       -40.266          45.188  
C61                                                                                                                                                                                                  37628892.873   151515888.47308       -40.266          47.000  
C62                                                                  38284611.012   199357975.17008        -0.000          47.188    38284607.763   161994700.90207        -0.000          43.750    38284592.968   154156236.18209        -0.000          53.000  
E02  24445329.103   128461079.31507      2133.544          45.062    24445332.196    95928695.79108      1593.231          47.562    24445328.722   104270351.76608      1731.773          47.000    24445327.140    98431205.49608      1634.794          47.688  
E15  26268954.228   138044370.06806     -2254.410          39.125    26268968.732   103085191.49307     -1683.488          42.750    26268962.663   112049110.54707     -1829.878          44.062    26268962.143   105774282.18707     -1727.405          43.500  
E18  20474187.083   107592694.06507     -4629.686          46.562    20474192.532    80345204.66008     -3457.233          48.750                                                                    20474188.508    82441150.55908     -3547.422          50.688  
E30  23931731.854   125762164.70707      -599.074          45.375    23931738.807    93913316.66108      -447.361          48.562    23931736.867   102079687.64208      -486.261          49.750    23931734.247    96363228.40508      -459.031          49.500  
E34  23417188.094   123058172.62507      -273.262          45.875    23417190.899    91894112.89508      -204.059          48.250    23417189.716    99884901.23308      -221.803          50.125    23417186.750    94291347.98208      -209.382          50.000  
E36  25054441.711   131661913.33807      2023.189          43.000    25054447.153    98318979.85908      1510.823          47.312    25054444.179   106868463.51408      1642.199          48.500    25054442.771   100883823.19308      1550.235          48.875  
G01  23831888.577   125237393.62504      3168.786          28.312    23831891.365    97587578.79505      2469.184          32.625    23831888.702    93521465.00105      2366.301          32.500  
G03  21442068.114   112679063.27007      1397.840          43.500    21442069.367    87801926.40907      1089.226          42.750    21442070.994    84143524.92308      1043.841          49.500  
G06  21319490.339   112034798.49807     -1571.256          44.750    21319498.963    87299937.24808     -1224.355          48.188    21319496.238    83662451.64508     -1173.340          51.312  
G11  24554685.228   129035787.91806     -3011.135          40.375    24554688.396   100547386.47006     -2346.339          37.750    24554696.398    96357916.46406     -2248.575          40.438  
G14  21252218.168   111681162.23907      2737.873          45.688    21252215.308    87024282.04207      2133.408          43.312    21252224.588    83398270.24408      2044.516          47.875  
G17  20780264.992   109201088.61107       194.437          46.375    20780264.716    85091770.87507       151.509          46.688                                                                  
G19  20576248.260   108128961.23207     -1592.276          44.938    20576246.312    84256353.54707     -1240.735          42.812                                                                  
G22  21006032.659   110387464.83307      1513.450          46.750    21006029.783    86016214.52107      1179.312          43.000                                                                  
G24  24923986.311   130976423.74706      1361.054          35.062    24923995.958   102059538.82306      1060.562          36.688    24923997.826    97807054.33007      1016.372          41.000  
R04  22027048.054   117954002.45007     -1793.910          44.875    22027053.136    91742035.35107     -1395.263          44.500  
R05  23325203.033   124686702.73407     -3891.577          44.438    23325210.409    96978588.84606     -3026.782          40.938  
R09  21332149.466   113912426.59507      3850.100          46.812    21332154.694    88598564.87308      2994.522          49.625  
R10  20197169.275   107662296.68407       666.320          44.500                                                                  
R11  22329175.285   119320316.98005     -3115.375          31.625    22329179.633    92804708.91305     -2423.070          34.938  
R19  21050676.274   112606972.91708      2332.306          49.750    21050676.796    87583216.66808      1814.016          48.875  
R20  19831700.761   106049153.84808      -390.364          49.375    19831707.033    82482708.13808      -303.616          50.062  
R21  22576648.297   120812301.39107     -2525.768          44.250    22576659.419    93965149.48807     -1964.486          45.500  
> 2026 03 22 06 12  0.0000000  0 47                     
C01                                                                  38311856.119   199499893.45407       -20.829          41.938    38311857.643   162109989.95506       -16.925          39.875                                                                  
C02                                                                  38344808.786   199671438.67406       -41.658          39.188    38344804.374   162249431.27206       -33.850          39.375                                                                  
C03                                                                  37342244.728   194450823.83607       -36.451          43.000    37342246.107   158007274.29707       -29.619          42.375                                                                  
C04                                                                  39244475.471   204356231.86506       -98.938          39.312    39244474.119   166056212.31406       -80.395          39.812                                                                  
C05                                                                  40342938.822   210076252.85906        10.414          36.625    40342942.237   170704178.28306         8.463          35.875                                                                  
C06                                                                  40206717.265   209366776.50405      1895.443          33.000    40206726.669   170127529.89306      1540.203          35.500                                                                  
C07                                                                  35721960.640   186013575.33107      -192.669          46.938    35721950.848   151151295.18707      -156.559          46.125                                                                  
C09                                                                  38953863.138   202842772.25506      1900.651          39.000    38953858.563   164826392.83006      1544.435          36.875                                                                  
C10                                                                  36400076.922   189544740.54307      -395.752          45.000    36400070.286   154020625.99207      -321.581          44.812                                                                  
C12                                                                  21804755.352   113543163.60607        72.902          45.688    21804754.028    92263136.51508        59.239          48.938                                                                  
C16                                                                  40791356.991   212410710.40206      1786.091          37.562    40791380.053   172600996.50905      1451.345          32.562                                                                  
C19                                                                                                                                  26125355.316   110539625.62503      1129.765          20.750                                                                  
C22  23933377.975   125770990.82506     -1297.994          40.438    23933384.034   124627618.79507     -1286.194          44.875    23933378.105   101270196.27607     -1045.138          45.812                                                                  
C24  24144192.611   126878559.36807      2848.229          41.812    24144199.593   125725116.13507      2822.336          44.812    24144197.727   102161944.27208      2293.379          47.562                                                                  
C25  23418592.367   123065559.98007       141.886          43.312    23418596.791   121946784.01707       140.596          46.625    23418592.338    99091755.13807       114.246          46.750                                                                  
C34  22128545.691   116286391.54007     -1208.658          45.875    22128552.861   115229243.88008     -1197.670          48.688    22128549.298    93633219.26408      -973.205          47.250                                                                  
C35  25909884.964   136157375.80606      2469.867          35.562    25909894.693   134919586.94807      2447.413          41.562    25909893.639   109633203.90306      1988.724          39.375                                                                  
C38  37975616.083   199563566.71107     -1707.887          42.062    37975615.771   197749355.40007     -1692.360          44.188    37975615.811   160687622.44107     -1375.182          45.812                                                                  
C40  36064387.386   189519646.17107      -126.121          46.188    36064390.381   187796709.03508      -124.974          48.750    36064385.480   152600207.46108      -101.552          48.750                                                                  
C44  22129989.637   116293959.91307      1266.464          43.250    22129996.922   115236743.19208      1254.950          47.500    22129993.957    93639303.93208      1019.750          49.000                                                                  
C59                                                                  38120462.488   198503199.39707       -62.487          43.812    38120452.149   161300159.53707       -50.776          44.812    38120451.868   153495301.04007       -48.319          45.875  
C60                                                                  38704423.425   201544062.97207       -52.073          43.062    38704410.119   163771058.31907       -42.313          43.375    38704411.674   155846655.02807       -40.266          44.500  
C61                                                                                                                                                                                                  37628604.697   151514728.09707       -40.266          46.188  
C62                                                                  38284610.880   199357974.76408        -0.000          47.500    38284607.661   161994700.60407        -0.000          43.938    38284592.868   154156235.88508        -0.000          52.250  
E02  24457527.883   128525181.94107      2138.800          45.438    24457530.769    95976564.55808      1597.156          47.562    24457527.045   104322383.07008      1736.039          47.000    24457525.811    98480323.02508      1638.821          47.812  
E15  26256104.136   137976834.54906     -2249.155          39.875    26256116.612   103034759.32407     -1679.564          42.312    26256111.266   111994292.93707     -1825.613          44.062    26256110.318   105722534.38207     -1723.379          43.438  
E18  20447776.157   107453899.77007     -4624.431          46.562    20447780.880    80241559.58808     -3453.309          48.812                                                                    20447776.713    82334801.70908     -3543.395          50.688  
E30  23928347.976   125744372.61007      -588.564          45.688    23928353.142    93900030.35908      -439.512          48.688    23928351.029   102065246.01308      -477.730          49.562    23928348.464    96349595.50108      -450.977          49.500  
E34  23415653.559   123050133.08507      -262.752          45.875    23415661.022    91888109.35408      -196.211          48.312    23415660.033    99878375.63308      -213.273          50.062    23415657.061    94285187.82908      -201.329          50.000  
E36  25066003.042   131722673.15507      2028.444          43.312    25066009.437    98364352.39008      1514.747          47.312    25066007.724   106917781.52008      1646.464          48.562    25066004.973   100930379.37008      1554.262          48.812  
G01  23849967.837   125325891.79704      3168.786          24.312    23849971.909    97661636.67105      2469.184          30.812    23849975.702    93592437.11105      2366.301          32.438  
G03  21450120.053   112721378.58407      1418.860          43.438    21450118.826    87834899.37307      1105.605          42.188    21450123.486    84175124.00708      1059.538          49.750  
G06  21310560.919   111987867.36807     -1560.745          46.625    21310566.399    87263367.55508     -1216.165          47.312    21310565.343    83627405.72908     -1165.492          51.312  
G11  24537514.939   128945569.02906     -3005.880          40.125    24537520.350   100477086.51106     -2342.244          38.125    24537527.201    96290545.78906     -2244.651          40.562  
G14  21267882.033   111763480.13007      2748.384          45.500    21267879.995    87088425.73207      2141.598          42.750    21267889.102    83459741.27308      2052.364          47.562  
G17  20781410.609   109207115.95407       204.946          45.938    20781410.315    85096467.50607       159.698          46.000                                                                  
G19  20567167.687   108081244.18807     -1587.021          45.375    20567166.244    84219171.47207     -1236.639          43.062                                                                  
G22  21014729.779   110433166.56008      1529.216          47.562    21014726.702    86051826.22807      1191.597          42.812                                                                  
G24  24931793.788   131017451.29006      1376.819          35.000    24931802.288   102091508.17606      1072.846          35.750    24931806.694    97837691.64807      1028.144          41.562  
R04  22017072.969   117900557.47708     -1772.490          47.250    22017073.936    91700467.13207     -1378.603          44.312  
R05  23303372.957   124570036.55107     -3886.232          41.625    23303383.955    96887849.30006     -3022.625          39.125  
R09  21353822.747   114028154.70207      3866.119          46.500    21353825.436    88688575.40108      3006.982          49.188  
R10  20201001.997   107682731.10207       692.973          46.312                                                                  
R11  22311742.340   119227153.03905     -3099.344          34.312    22311744.029    92732248.15606     -2410.601          35.250  
R19  21063769.403   112677016.51108      2337.655          49.500    21063770.620    87637694.95108      1818.176          48.375  
R20  19829550.877   106037638.30708      -379.669          51.125    19829550.791    82473751.65208      -295.298          49.688  
R21  22562497.901   120736572.52307     -2520.416          44.875    22562504.775    93906249.47107     -1960.324          43.750  
> 2026 03 22 06 12 30.0000000  0 48                     
C01                                                                  38311724.653   199499208.27607       -20.829          42.562    38311725.891   162109433.22906       -16.925          39.000                                                                  
C02                                                                  38344578.774   199670241.23306       -41.658          39.500    38344574.469   162248458.25906       -33.850          38.562                                                                  
C03                                                                  37342020.557   194449655.74707       -36.451          43.688    37342021.787   158006325.16807       -29.619          41.500                                                                  
C04                                                                  39243916.945   204353325.84406       -98.938          39.750    39243915.911   166053850.97606       -80.395          39.000                                                                  
C05                                                                  40342991.849   210076530.26606        10.414          37.250    40342995.470   170704403.72906         8.463          35.188                                                                  
C06                                                                  40217619.631   209423541.54005      1890.236          33.250    40217628.504   170173655.37305      1535.972          34.688                                                                  
C07                                                                  35720864.320   186007860.50508      -192.668          47.625    35720853.415   151146651.44507      -156.559          45.375                                                                  
C09                                                                  38964821.656   202899838.00806      1900.651          39.188    38964817.361   164872763.26906      1544.435          35.750                                                                  
C10                                                                  36397786.850   189532820.94607      -395.752          45.250    36397781.227   154010940.36807      -321.581          44.000                                                                  
C12                                                                  21805190.386   113545417.70607        78.109          46.938    21805186.846    92264968.17508        63.470          48.125                                                                  
C16                                                                  40801644.677   212464280.15206      1786.091          37.562    40801668.954   172644525.28705      1451.345          31.938                                                                  
C19                                                                  26133425.712   136077741.68003      1411.168          17.375    26133422.483   110574311.71903      1146.689          20.062                                                                  
C22  23926024.806   125732355.12006     -1282.228          40.562    23926032.581   124589334.36807     -1270.572          46.188    23926025.420   101239087.10107     -1032.444          44.875                                                                  
C24  24160461.201   126964046.93307      2853.484          42.688    24160467.352   125809826.52707      2827.543          45.125    24160465.508   102230778.30107      2297.611          46.625                                                                  
C25  23419459.158   123070139.27707       162.906          43.000    23419465.587   121951321.69007       161.425          46.125    23419463.804    99095442.38207       131.171          45.938                                                                  
C34  22121666.264   116250223.90407     -1203.403          45.875    22121666.968   115193405.06508     -1192.463          48.500    22121666.759    93604097.33007      -968.974          46.375                                                                  
C35  25923993.937   136231501.82406      2469.867          37.250    25924000.777   134993039.04507      2447.413          41.562    25923999.711   109692889.68906      1988.724          39.000                                                                  
C38  37965861.440   199512325.40607     -1707.886          42.000    37965867.445   197698579.95307     -1692.360          45.500    37965864.923   160646363.32007     -1375.181          45.062                                                                  
C40  36063673.735   189515892.09907      -126.121          46.500    36063675.875   187792989.07908      -124.974          49.000    36063671.104   152597184.72408      -101.552          48.000                                                                  
C44  22137250.016   116332094.54607      1271.719          44.062    22137250.406   115274531.18807      1260.158          46.562    22137250.791    93670009.75408      1023.981          48.188                                                                  
C59                                                                  38120108.441   198501354.29107       -62.487          44.312    38120097.737   161298660.27107       -50.776          44.000    38120097.477   153493874.32407       -48.319          46.188  
C60                                                                  38704128.340   201542525.99807       -52.073          43.625    38704115.018   163769809.41507       -42.313          42.562    38704116.452   155845466.57307       -40.266          44.688  
C61                                                                                                                                                                                                  37628314.638   151513560.09307       -40.266          46.562  
C62                                                                  38284609.623   199357968.35008        -0.000          48.000    38284606.430   161994695.40907        -0.000          43.125    38284591.611   154156230.94908        -0.000          52.562  
E02  24469779.148   128589564.47807      2149.310          45.812    24469782.594    96024642.36008      1605.004          47.562    24469778.870   104374641.58407      1744.570          46.875    24469777.701    98529655.04108      1646.874          47.750  
E15  26243286.672   137909473.51806     -2243.900          39.938    26243297.399   102984457.47507     -1675.640          41.750    26243293.732   111939616.91707     -1821.347          43.938    26243291.654   105670920.29107     -1719.352          43.062  
E18  20421396.079   107315258.82108     -4619.176          47.062    20421398.409    80138029.07108     -3449.385          48.875                                                                    20421394.011    82228570.37708     -3539.369          50.375  
E30  23925033.641   125726946.52807      -572.799          46.000    23925037.062    93887017.41008      -427.740          48.625    23925034.555   102051101.49408      -464.934          49.250    23925032.403    96336243.07608      -438.898          49.250  
E34  23414180.257   123042363.91507      -252.242          46.500    23414182.664    91882307.74808      -188.362          48.375    23414181.615    99872069.52908      -204.742          49.875    23414178.658    94279234.85808      -193.276          49.812  
E36  25077587.723   131783542.14607      2028.444          43.500    25077592.551    98409806.50408      1514.747          47.375    25077592.178   106967188.15908      1646.464          48.375    25077588.134   100977019.24108      1554.262          48.688  
G01  23868065.907   125421278.55505      3168.786          30.375    23868060.783    97735711.29005      2469.184          29.688    23868065.623    93663425.27305      2366.302          32.250  
G03  21458284.550   112764288.58007      1439.880          42.500    21458285.366    87868335.74407      1121.984          42.438    21458289.040    84207167.18108      1075.235          49.500  
G06  21301696.283   111941282.36407     -1544.981          45.812    21301695.296    87227067.69607     -1203.881          45.312    21301700.816    83592618.36508     -1153.719          51.250  
G11  24520370.984   128855490.03506     -3000.625          38.562    24520379.913   100406895.63406     -2338.150          38.000    24520385.428    96223279.61106     -2240.727          40.812  
G14  21283620.267   111846196.13407      2764.149          44.062    21283622.845    87152879.66107      2153.882          43.000    21283629.195    83521509.59808      2064.137          47.188  
G17  20782604.570   109213389.76607       215.456          45.188    20782607.251    85101356.21507       167.888          46.562                                                                  
G19  20558131.467   108033759.46507     -1576.511          44.875    20558130.313    84182170.43407     -1228.450          43.062                                                                  
G22  21023514.534   110479336.52307      1544.981          46.500    21023512.615    86087802.78907      1203.881          42.938                                                                  
G24  24939681.482   131058899.50406      1387.330          35.250    24939692.019   102123805.38206      1081.036          36.000    24939694.266    97868643.12207      1035.993          41.312  
R03  23236738.830   124382371.94802      1445.331          14.938                                                                  
R04  22007213.188   117847764.51107     -1751.070          46.938    22007217.109    91659406.08307     -1361.943          43.688  
R05  23281569.568   124453478.38807     -3880.886          43.625    23281578.591    96797193.64506     -3018.467          37.750  
R09  21375561.883   114144245.47007      3876.799          46.375    21375565.134    88778868.01908      3015.288          48.812  
R10  20204990.486   107703969.55407       719.626          46.625                                                                  
R11  22294410.530   119134522.52006     -3077.969          35.125    22294411.785    92660202.20905     -2393.976          34.625  
R19  21076885.259   112747184.79708      2343.004          49.312    21076888.254    87692270.28408      1822.337          48.188  
R20  19827453.716   106026430.56808      -368.974          50.562    19827452.715    82465034.56608      -286.980          48.125  
R21  22548377.883   120661023.98007     -2515.065          44.750    22548383.391    93847489.77607     -1956.162          41.500  
